{"fetched_at":"2026-03-29T02:12:04Z","count":15717,"tles":[{"name":"GSAT0219 (GALILEO 23)","line1":"1 43566U 18060C   26085.21047518 -.00000094  00000+0  00000+0 0  9990","line2":"2 43566  57.1986 344.0284 0004705 320.4446  39.5555  1.70475357 47772","category":"GPS"}]}